[{"OBJECT_NAME":"STARLINK-36335","OBJECT_ID":"2026-040A","EPOCH":"2026-03-29T02:52:38.030304","MEAN_MOTION":15.75243304,"ECCENTRICITY":0.0002825,"INCLINATION":97.2865,"RA_OF_ASC_NODE":37.5179,"ARG_OF_PERICENTER":104.2969,"MEAN_ANOMALY":255.861,"EPHEMERIS_TYPE":0,"CLASSIFICATION_TYPE":"U","NORAD_CAT_ID":68015,"ELEMENT_SET_NO":999,"REV_AT_EPOCH":441,"BSTAR":0.0018041,"MEAN_MOTION_DOT":0.00278586,"MEAN_MOTION_DDOT":0},{"OBJECT_NAME":"STARLINK-36923","OBJECT_ID":"2026-040B","EPOCH":"2026-03-28T20:45:11.299104","MEAN_MOTION":15.75241812,"ECCENTRICITY":0.00017522,"INCLINATION":97.286,"RA_OF_ASC_NODE":37.2542,"ARG_OF_PERICENTER":65.9812,"MEAN_ANOMALY":294.1637,"EPHEMERIS_TYPE":0,"CLASSIFICATION_TYPE":"U","NORAD_CAT_ID":68016,"ELEMENT_SET_NO":999,"REV_AT_EPOCH":437,"BSTAR":0.0010600654,"MEAN_MOTION_DOT":0.00161372,"MEAN_MOTION_DDOT":0},{"OBJECT_NAME":"STARLINK-36568","OBJECT_ID":"2026-040C","EPOCH":"2026-03-30T04:45:25.962624","MEAN_MOTION":15.74762528,"ECCENTRICITY":0.0004643,"INCLINATION":97.2878,"RA_OF_ASC_NODE":38.6554,"ARG_OF_PERICENTER":0.8734,"MEAN_ANOMALY":359.2539,"EPHEMERIS_TYPE":0,"CLASSIFICATION_TYPE":"U","NORAD_CAT_ID":68017,"ELEMENT_SET_NO":999,"REV_AT_EPOCH":458,"BSTAR":0.0020981,"MEAN_MOTION_DOT":0.00318947,"MEAN_MOTION_DDOT":0},{"OBJECT_NAME":"STARLINK-36930","OBJECT_ID":"2026-040D","EPOCH":"2026-03-29T00:00:01.999296","MEAN_MOTION":15.75219748,"ECCENTRICITY":0.0001353,"INCLINATION":97.286,"RA_OF_ASC_NODE":37.395,"ARG_OF_PERICENTER":82.7705,"MEAN_ANOMALY":320.1163,"EPHEMERIS_TYPE":0,"CLASSIFICATION_TYPE":"U","NORAD_CAT_ID":68018,"ELEMENT_SET_NO":999,"REV_AT_EPOCH":553,"BSTAR":-0.00032043,"MEAN_MOTION_DOT":-0.0004772,"MEAN_MOTION_DDOT":0},{"OBJECT_NAME":"STARLINK-36921","OBJECT_ID":"2026-040E","EPOCH":"2026-03-30T04:42:08.205120","MEAN_MOTION":15.73612984,"ECCENTRICITY":0.0001273,"INCLINATION":97.2865,"RA_OF_ASC_NODE":38.6613,"ARG_OF_PERICENTER":73.3272,"MEAN_ANOMALY":286.8132,"EPHEMERIS_TYPE":0,"CLASSIFICATION_TYPE":"U","NORAD_CAT_ID":68019,"ELEMENT_SET_NO":999,"REV_AT_EPOCH":458,"BSTAR":-0.0058251,"MEAN_MOTION_DOT":-0.00744503,"MEAN_MOTION_DDOT":0},{"OBJECT_NAME":"STARLINK-36928","OBJECT_ID":"2026-040F","EPOCH":"2026-03-30T04:43:20.788896","MEAN_MOTION":15.74419777,"ECCENTRICITY":7.84e-5,"INCLINATION":97.2856,"RA_OF_ASC_NODE":38.658,"ARG_OF_PERICENTER":305.3637,"MEAN_ANOMALY":54.7555,"EPHEMERIS_TYPE":0,"CLASSIFICATION_TYPE":"U","NORAD_CAT_ID":68020,"ELEMENT_SET_NO":999,"REV_AT_EPOCH":458,"BSTAR":-0.0047443,"MEAN_MOTION_DOT":-0.006358,"MEAN_MOTION_DDOT":0},{"OBJECT_NAME":"STARLINK-36858","OBJECT_ID":"2026-040G","EPOCH":"2026-03-24T12:55:13.776960","MEAN_MOTION":15.75331784,"ECCENTRICITY":0.00016946,"INCLINATION":97.2853,"RA_OF_ASC_NODE":32.8877,"ARG_OF_PERICENTER":78.8231,"MEAN_ANOMALY":281.3225,"EPHEMERIS_TYPE":0,"CLASSIFICATION_TYPE":"U","NORAD_CAT_ID":68021,"ELEMENT_SET_NO":999,"REV_AT_EPOCH":370,"BSTAR":0.0017848498,"MEAN_MOTION_DOT":0.00276588,"MEAN_MOTION_DDOT":0},{"OBJECT_NAME":"STARLINK-36916","OBJECT_ID":"2026-040H","EPOCH":"2026-03-30T04:00:01.999584","MEAN_MOTION":15.62520271,"ECCENTRICITY":0.0001824,"INCLINATION":97.2854,"RA_OF_ASC_NODE":38.6052,"ARG_OF_PERICENTER":98.0696,"MEAN_ANOMALY":35.8111,"EPHEMERIS_TYPE":0,"CLASSIFICATION_TYPE":"U","NORAD_CAT_ID":68022,"ELEMENT_SET_NO":999,"REV_AT_EPOCH":572,"BSTAR":-0.024353,"MEAN_MOTION_DOT":-0.019145,"MEAN_MOTION_DDOT":0},{"OBJECT_NAME":"STARLINK-36871","OBJECT_ID":"2026-040J","EPOCH":"2026-03-30T03:08:24.126720","MEAN_MOTION":15.74618586,"ECCENTRICITY":0.0002565,"INCLINATION":97.2866,"RA_OF_ASC_NODE":38.5927,"ARG_OF_PERICENTER":52.0324,"MEAN_ANOMALY":308.1172,"EPHEMERIS_TYPE":0,"CLASSIFICATION_TYPE":"U","NORAD_CAT_ID":68023,"ELEMENT_SET_NO":999,"REV_AT_EPOCH":457,"BSTAR":0.0028044,"MEAN_MOTION_DOT":0.00429213,"MEAN_MOTION_DDOT":0},{"OBJECT_NAME":"STARLINK-36891","OBJECT_ID":"2026-040K","EPOCH":"2026-03-29T02:43:29.016192","MEAN_MOTION":15.75298962,"ECCENTRICITY":0.0003078,"INCLINATION":97.2861,"RA_OF_ASC_NODE":37.527,"ARG_OF_PERICENTER":111.1562,"MEAN_ANOMALY":249.0033,"EPHEMERIS_TYPE":0,"CLASSIFICATION_TYPE":"U","NORAD_CAT_ID":68024,"ELEMENT_SET_NO":999,"REV_AT_EPOCH":441,"BSTAR":0.0020307,"MEAN_MOTION_DOT":0.00315739,"MEAN_MOTION_DDOT":0},{"OBJECT_NAME":"STARLINK-36378","OBJECT_ID":"2026-040L","EPOCH":"2026-03-30T03:05:17.001600","MEAN_MOTION":15.75181155,"ECCENTRICITY":0.0018502,"INCLINATION":97.285,"RA_OF_ASC_NODE":38.5984,"ARG_OF_PERICENTER":193.7011,"MEAN_ANOMALY":166.3755,"EPHEMERIS_TYPE":0,"CLASSIFICATION_TYPE":"U","NORAD_CAT_ID":68025,"ELEMENT_SET_NO":999,"REV_AT_EPOCH":457,"BSTAR":0.0032145,"MEAN_MOTION_DOT":0.00513154,"MEAN_MOTION_DDOT":0},{"OBJECT_NAME":"STARLINK-36884","OBJECT_ID":"2026-040M","EPOCH":"2026-03-29T20:59:53.282400","MEAN_MOTION":15.75507419,"ECCENTRICITY":0.0010012,"INCLINATION":97.286,"RA_OF_ASC_NODE":38.3293,"ARG_OF_PERICENTER":176.607,"MEAN_ANOMALY":183.5265,"EPHEMERIS_TYPE":0,"CLASSIFICATION_TYPE":"U","NORAD_CAT_ID":68026,"ELEMENT_SET_NO":999,"REV_AT_EPOCH":453,"BSTAR":0.0104,"MEAN_MOTION_DOT":0.01791738,"MEAN_MOTION_DDOT":0},{"OBJECT_NAME":"STARLINK-36940","OBJECT_ID":"2026-040N","EPOCH":"2026-03-30T02:52:56.240832","MEAN_MOTION":15.75280149,"ECCENTRICITY":0.0002035,"INCLINATION":97.2838,"RA_OF_ASC_NODE":38.6145,"ARG_OF_PERICENTER":115.1789,"MEAN_ANOMALY":244.9688,"EPHEMERIS_TYPE":0,"CLASSIFICATION_TYPE":"U","NORAD_CAT_ID":68027,"ELEMENT_SET_NO":999,"REV_AT_EPOCH":457,"BSTAR":0.0022698,"MEAN_MOTION_DOT":0.00354225,"MEAN_MOTION_DDOT":0},{"OBJECT_NAME":"STARLINK-36253","OBJECT_ID":"2026-040P","EPOCH":"2026-03-30T04:00:01.999584","MEAN_MOTION":15.33377799,"ECCENTRICITY":0.0002232,"INCLINATION":97.2858,"RA_OF_ASC_NODE":37.9891,"ARG_OF_PERICENTER":91.6146,"MEAN_ANOMALY":39.1949,"EPHEMERIS_TYPE":0,"CLASSIFICATION_TYPE":"U","NORAD_CAT_ID":68028,"ELEMENT_SET_NO":999,"REV_AT_EPOCH":582,"BSTAR":0.0036885,"MEAN_MOTION_DOT":0.00120673,"MEAN_MOTION_DDOT":0},{"OBJECT_NAME":"STARLINK-36944","OBJECT_ID":"2026-040Q","EPOCH":"2026-03-29T04:11:56.548320","MEAN_MOTION":15.75242102,"ECCENTRICITY":0.0001784,"INCLINATION":97.2863,"RA_OF_ASC_NODE":37.5976,"ARG_OF_PERICENTER":52.2871,"MEAN_ANOMALY":307.8556,"EPHEMERIS_TYPE":0,"CLASSIFICATION_TYPE":"U","NORAD_CAT_ID":68029,"ELEMENT_SET_NO":999,"REV_AT_EPOCH":442,"BSTAR":0.0024203,"MEAN_MOTION_DOT":0.00378177,"MEAN_MOTION_DDOT":0},{"OBJECT_NAME":"STARLINK-36942","OBJECT_ID":"2026-040R","EPOCH":"2026-03-29T02:39:25.305984","MEAN_MOTION":15.7527769,"ECCENTRICITY":0.0003468,"INCLINATION":97.2859,"RA_OF_ASC_NODE":37.5337,"ARG_OF_PERICENTER":121.0523,"MEAN_ANOMALY":239.1083,"EPHEMERIS_TYPE":0,"CLASSIFICATION_TYPE":"U","NORAD_CAT_ID":68030,"ELEMENT_SET_NO":999,"REV_AT_EPOCH":441,"BSTAR":0.0017986,"MEAN_MOTION_DOT":0.00278157,"MEAN_MOTION_DDOT":0},{"OBJECT_NAME":"STARLINK-36913","OBJECT_ID":"2026-040S","EPOCH":"2026-03-30T04:00:01.999584","MEAN_MOTION":15.57371817,"ECCENTRICITY":0.0001701,"INCLINATION":97.2852,"RA_OF_ASC_NODE":38.5881,"ARG_OF_PERICENTER":92.0138,"MEAN_ANOMALY":1.0785,"EPHEMERIS_TYPE":0,"CLASSIFICATION_TYPE":"U","NORAD_CAT_ID":68031,"ELEMENT_SET_NO":999,"REV_AT_EPOCH":572,"BSTAR":-0.029298,"MEAN_MOTION_DOT":-0.01893258,"MEAN_MOTION_DDOT":0}]
